{
  "type": "FeatureCollection",
  "features": [
    {
      "type": "Feature",
      "properties": {
        "norad_id": 34972,
        "name": "COSMOS 2251 DEB",
        "group": "cosmos-2251-debris",
        "lat": 1.3601704898276568,
        "lon": -150.30939482001023,
        "alt_km": 630.9283400626737,
        "timestamp": "2025-12-22T20:43:46.243789+00:00",
        "meta_object_name": "COSMOS 2251 DEB",
        "meta_object_id": "1993-036AFB",
        "meta_epoch": "2025-12-20T04:37:09.782112",
        "meta_mean_motion": 14.72993078,
        "meta_eccentricity": 0.0033079,
        "meta_inclination": 73.988,
        "meta_ra_of_asc_node": 35.2981,
        "meta_arg_of_pericenter": 193.0312,
        "meta_mean_anomaly": 226.1658,
        "meta_ephemeris_type": 0,
        "meta_classification_type": "U",
        "meta_norad_cat_id": 34972,
        "meta_element_set_no": 999,
        "meta_rev_at_epoch": 87760,
        "meta_bstar": 0.00080503,
        "meta_mean_motion_dot": 5.185e-05,
        "meta_mean_motion_ddot": 0,
        "tle_line1": "1 34972U 93036AFB 25354.19247433  .00005185  00000+0  80503-3 0  9995",
        "tle_line2": "2 34972  73.9880  35.2981 0033079 193.0312 226.1658 14.72993078877609"
      },
      "geometry": {
        "type": "Point",
        "coordinates": [
          -150.30939482001023,
          1.3601704898276568
        ]
      }
    },
    {
      "type": "Feature",
      "properties": {
        "norad_id": 34976,
        "name": "COSMOS 2251 DEB",
        "group": "cosmos-2251-debris",
        "lat": 45.33797324731646,
        "lon": -56.75137923798365,
        "alt_km": 627.5322654533375,
        "timestamp": "2025-12-22T20:43:46.243800+00:00",
        "meta_object_name": "COSMOS 2251 DEB",
        "meta_object_id": "1993-036AFF",
        "meta_epoch": "2025-12-21T06:10:26.762880",
        "meta_mean_motion": 14.7673606,
        "meta_eccentricity": 0.0047873,
        "meta_inclination": 74.0584,
        "meta_ra_of_asc_node": 289.5795,
        "meta_arg_of_pericenter": 334.4834,
        "meta_mean_anomaly": 175.8331,
        "meta_ephemeris_type": 0,
        "meta_classification_type": "U",
        "meta_norad_cat_id": 34976,
        "meta_element_set_no": 999,
        "meta_rev_at_epoch": 88399,
        "meta_bstar": 0.0011964,
        "meta_mean_motion_dot": 8.517e-05,
        "meta_mean_motion_ddot": 0,
        "tle_line1": "1 34976U 93036AFF 25355.25725420  .00008517  00000+0  11964-2 0  9990",
        "tle_line2": "2 34976  74.0584 289.5795 0047873 334.4834 175.8331 14.76736060883997"
      },
      "geometry": {
        "type": "Point",
        "coordinates": [
          -56.75137923798365,
          45.33797324731646
        ]
      }
    },
    {
      "type": "Feature",
      "properties": {
        "norad_id": 34979,
        "name": "COSMOS 2251 DEB",
        "group": "cosmos-2251-debris",
        "lat": -15.522343222808976,
        "lon": 71.90274874132318,
        "alt_km": 655.9826977217144,
        "timestamp": "2025-12-22T20:43:46.243810+00:00",
        "meta_object_name": "COSMOS 2251 DEB",
        "meta_object_id": "1993-036AFJ",
        "meta_epoch": "2025-12-22T10:06:20.774592",
        "meta_mean_motion": 14.79510282,
        "meta_eccentricity": 0.00492102,
        "meta_inclination": 74.0391,
        "meta_ra_of_asc_node": 248.2142,
        "meta_arg_of_pericenter": 324.1275,
        "meta_mean_anomaly": 35.6599,
        "meta_ephemeris_type": 0,
        "meta_classification_type": "U",
        "meta_norad_cat_id": 34979,
        "meta_element_set_no": 999,
        "meta_rev_at_epoch": 88363,
        "meta_bstar": 0.0011819481,
        "meta_mean_motion_dot": 8.998e-05,
        "meta_mean_motion_ddot": 0,
        "tle_line1": "1 34979U 93036AFJ 25356.42107378  .00008998  00000+0  11819-2 0  9991",
        "tle_line2": "2 34979  74.0391 248.2142 0049210 324.1275  35.6599 14.79510282883635"
      },
      "geometry": {
        "type": "Point",
        "coordinates": [
          71.90274874132318,
          -15.522343222808976
        ]
      }
    },
    {
      "type": "Feature",
      "properties": {
        "norad_id": 34990,
        "name": "COSMOS 2251 DEB",
        "group": "cosmos-2251-debris",
        "lat": 30.07942339522495,
        "lon": -117.88966603475875,
        "alt_km": 750.3306103095529,
        "timestamp": "2025-12-22T20:43:46.243820+00:00",
        "meta_object_name": "COSMOS 2251 DEB",
        "meta_object_id": "1993-036AFN",
        "meta_epoch": "2025-12-15T10:28:28.781472",
        "meta_mean_motion": 14.42382837,
        "meta_eccentricity": 0.00165597,
        "meta_inclination": 74.0457,
        "meta_ra_of_asc_node": 246.3361,
        "meta_arg_of_pericenter": 308.9911,
        "meta_mean_anomaly": 50.977,
        "meta_ephemeris_type": 0,
        "meta_classification_type": "U",
        "meta_norad_cat_id": 34990,
        "meta_element_set_no": 999,
        "meta_rev_at_epoch": 87385,
        "meta_bstar": 0.00031884459,
        "meta_mean_motion_dot": 1.029e-05,
        "meta_mean_motion_ddot": 0,
        "tle_line1": "1 34990U 93036AFN 25349.43644423  .00001029  00000+0  31884-3 0  9997",
        "tle_line2": "2 34990  74.0457 246.3361 0016559 308.9911  50.9770 14.42382837873857"
      },
      "geometry": {
        "type": "Point",
        "coordinates": [
          -117.88966603475875,
          30.07942339522495
        ]
      }
    },
    {
      "type": "Feature",
      "properties": {
        "norad_id": 34997,
        "name": "COSMOS 2251 DEB",
        "group": "cosmos-2251-debris",
        "lat": -42.320935630699715,
        "lon": -83.13356673397774,
        "alt_km": 701.2666048761012,
        "timestamp": "2025-12-22T20:43:46.243830+00:00",
        "meta_object_name": "COSMOS 2251 DEB",
        "meta_object_id": "1993-036AFV",
        "meta_epoch": "2025-12-22T02:39:53.440416",
        "meta_mean_motion": 14.45657457,
        "meta_eccentricity": 0.0097328,
        "meta_inclination": 73.8808,
        "meta_ra_of_asc_node": 293.5509,
        "meta_arg_of_pericenter": 267.0492,
        "meta_mean_anomaly": 91.9523,
        "meta_ephemeris_type": 0,
        "meta_classification_type": "U",
        "meta_norad_cat_id": 34997,
        "meta_element_set_no": 999,
        "meta_rev_at_epoch": 70882,
        "meta_bstar": 0.0015391452,
        "meta_mean_motion_dot": 5.746e-05,
        "meta_mean_motion_ddot": 0,
        "tle_line1": "1 34997U 93036AFV 25356.11103519  .00005746  00000+0  15391-2 0  9997",
        "tle_line2": "2 34997  73.8808 293.5509 0097328 267.0492  91.9523 14.45657457708822"
      },
      "geometry": {
        "type": "Point",
        "coordinates": [
          -83.13356673397774,
          -42.320935630699715
        ]
      }
    },
    {
      "type": "Feature",
      "properties": {
        "norad_id": 34998,
        "name": "COSMOS 2251 DEB",
        "group": "cosmos-2251-debris",
        "lat": -30.664915094278527,
        "lon": 131.1769873228936,
        "alt_km": 722.3420431340146,
        "timestamp": "2025-12-22T20:43:46.243840+00:00",
        "meta_object_name": "COSMOS 2251 DEB",
        "meta_object_id": "1993-036AFW",
        "meta_epoch": "2025-12-22T03:28:26.266080",
        "meta_mean_motion": 14.49318679,
        "meta_eccentricity": 0.00214468,
        "meta_inclination": 74.0103,
        "meta_ra_of_asc_node": 142.3159,
        "meta_arg_of_pericenter": 286.5677,
        "meta_mean_anomaly": 251.5263,
        "meta_ephemeris_type": 0,
        "meta_classification_type": "U",
        "meta_norad_cat_id": 34998,
        "meta_element_set_no": 999,
        "meta_rev_at_epoch": 87556,
        "meta_bstar": 0.00058847392,
        "meta_mean_motion_dot": 2.226e-05,
        "meta_mean_motion_ddot": 0,
        "tle_line1": "1 34998U 93036AFW 25356.14474845  .00002226  00000+0  58847-3 0  9998",
        "tle_line2": "2 34998  74.0103 142.3159 0021446 286.5677 251.5263 14.49318679875560"
      },
      "geometry": {
        "type": "Point",
        "coordinates": [
          131.1769873228936,
          -30.664915094278527
        ]
      }
    },
    {
      "type": "Feature",
      "properties": {
        "norad_id": 35012,
        "name": "COSMOS 2251 DEB",
        "group": "cosmos-2251-debris",
        "lat": 15.209943980962898,
        "lon": -91.62474806924027,
        "alt_km": 717.4131429184708,
        "timestamp": "2025-12-22T20:43:46.243850+00:00",
        "meta_object_name": "COSMOS 2251 DEB",
        "meta_object_id": "1993-036AFZ",
        "meta_epoch": "2025-12-21T00:46:53.304096",
        "meta_mean_motion": 14.45558565,
        "meta_eccentricity": 0.00816484,
        "meta_inclination": 74.0209,
        "meta_ra_of_asc_node": 96.2596,
        "meta_arg_of_pericenter": 234.7993,
        "meta_mean_anomaly": 124.5502,
        "meta_ephemeris_type": 0,
        "meta_classification_type": "U",
        "meta_norad_cat_id": 35012,
        "meta_element_set_no": 999,
        "meta_rev_at_epoch": 87681,
        "meta_bstar": 0.00012761293,
        "meta_mean_motion_dot": 4.4e-06,
        "meta_mean_motion_ddot": 0,
        "tle_line1": "1 35012U 93036AFZ 25355.03256139  .00000440  00000+0  12761-3 0  9998",
        "tle_line2": "2 35012  74.0209  96.2596 0081648 234.7993 124.5502 14.45558565876813"
      },
      "geometry": {
        "type": "Point",
        "coordinates": [
          -91.62474806924027,
          15.209943980962898
        ]
      }
    }
  ]
}